{"type": "FeatureCollection", "features": [ {"type": "Feature", "properties": {"norad_id": 43437, "name": "SENTINEL-3B", "group": "resource", "lat": -52.948471054665546, "lon": -131.2211594437565, "alt_km": 810.5234590904674, "timestamp": "2025-12-21T07:34:34.198142+00:00", "meta": {"OBJECT_NAME": "SENTINEL-3B", "OBJECT_ID": "2018-039A", "EPOCH": "2025-12-20T22:04:06.287808", "MEAN_MOTION": 14.26736896, "ECCENTRICITY": 0.00016382, "INCLINATION": 98.6257, "RA_OF_ASC_NODE": 59.9873, "ARG_OF_PERICENTER": 93.791, "MEAN_ANOMALY": 266.3458, "EPHEMERIS_TYPE": 0, "CLASSIFICATION_TYPE": "U", "NORAD_CAT_ID": 43437, "ELEMENT_SET_NO": 999, "REV_AT_EPOCH": 39870, "BSTAR": 6.0371471e-05, "MEAN_MOTION_DOT": 1.02e-06, "MEAN_MOTION_DDOT": 0}, "tle": {"line1": "1 43437U 18039A   25354.91951722  .00000102  00000+0  60371-4 0  9990", "line2": "2 43437  98.6257  59.9873 0001638  93.7910 266.3458 14.26736896398701"}}, "geometry": {"type": "Point", "coordinates": [-131.2211594437565, -52.948471054665546]}}, {"type": "Feature", "properties": {"norad_id": 43461, "name": "GAOFEN-5 01", "group": "resource", "lat": -1.1737452347102029, "lon": 138.25885819151648, "alt_km": 695.0469893675026, "timestamp": "2025-12-21T07:34:34.198152+00:00", "meta": {"OBJECT_NAME": "GAOFEN-5 01", "OBJECT_ID": "2018-043A", "EPOCH": "2025-12-20T20:53:01.011840", "MEAN_MOTION": 14.60417832, "ECCENTRICITY": 5.266e-05, "INCLINATION": 98.4337, "RA_OF_ASC_NODE": 317.9797, "ARG_OF_PERICENTER": 286.8492, "MEAN_ANOMALY": 73.2649, "EPHEMERIS_TYPE": 0, "CLASSIFICATION_TYPE": "U", "NORAD_CAT_ID": 43461, "ELEMENT_SET_NO": 999, "REV_AT_EPOCH": 40566, "BSTAR": 7.5472217e-05, "MEAN_MOTION_DOT": 3.17e-06, "MEAN_MOTION_DDOT": 0}, "tle": {"line1": "1 43461U 18043A   25354.87015060  .00000317  00000+0  75472-4 0  9999", "line2": "2 43461  98.4337 317.9797 0000526 286.8492  73.2649 14.60417832405667"}}, "geometry": {"type": "Point", "coordinates": [138.25885819151648, -1.1737452347102029]}}, {"type": "Feature", "properties": {"norad_id": 43484, "name": "GAOFEN-6", "group": "resource", "lat": -45.41514209507879, "lon": 67.2920498827806, "alt_km": 645.9582634882145, "timestamp": "2025-12-21T07:34:34.198161+00:00", "meta": {"OBJECT_NAME": "GAOFEN-6", "OBJECT_ID": "2018-048A", "EPOCH": "2025-12-20T22:01:31.761408", "MEAN_MOTION": 14.76578142, "ECCENTRICITY": 0.00128497, "INCLINATION": 97.8028, "RA_OF_ASC_NODE": 58.9102, "ARG_OF_PERICENTER": 39.452, "MEAN_ANOMALY": 320.7624, "EPHEMERIS_TYPE": 0, "CLASSIFICATION_TYPE": "U", "NORAD_CAT_ID": 43484, "ELEMENT_SET_NO": 999, "REV_AT_EPOCH": 40708, "BSTAR": 2.0533561e-05, "MEAN_MOTION_DOT": 9.4e-07, "MEAN_MOTION_DDOT": 0}, "tle": {"line1": "1 43484U 18048A   25354.91772872  .00000094  00000+0  20534-4 0  9996", "line2": "2 43484  97.8028  58.9102 0012849  39.4520 320.7624 14.76578142407089"}}, "geometry": {"type": "Point", "coordinates": [67.2920498827806, -45.41514209507879]}}, {"type": "Feature", "properties": {"norad_id": 43585, "name": "GAOFEN-11 01", "group": "resource", "lat": -23.461531270778693, "lon": -124.94685341234678, "alt_km": 422.88505819541206, "timestamp": "2025-12-21T07:34:34.198170+00:00", "meta": {"OBJECT_NAME": "GAOFEN-11 01", "OBJECT_ID": "2018-063A", "EPOCH": "2025-12-20T22:57:00.393984", "MEAN_MOTION": 15.49427639, "ECCENTRICITY": 0.00039131, "INCLINATION": 97.1559, "RA_OF_ASC_NODE": 57.8224, "ARG_OF_PERICENTER": 270.264, "MEAN_ANOMALY": 89.8164, "EPHEMERIS_TYPE": 0, "CLASSIFICATION_TYPE": "U", "NORAD_CAT_ID": 43585, "ELEMENT_SET_NO": 999, "REV_AT_EPOCH": 41269, "BSTAR": 8.5832573e-05, "MEAN_MOTION_DOT": 4.623e-05, "MEAN_MOTION_DDOT": 0}, "tle": {"line1": "1 43585U 18063A   25354.95625456  .00004623  00000+0  85833-4 0  9999", "line2": "2 43585  97.1559  57.8224 0003913 270.2640  89.8164 15.49427639412696"}}, "geometry": {"type": "Point", "coordinates": [-124.94685341234678, -23.461531270778693]}}, {"type": "Feature", "properties": {"norad_id": 43613, "name": "ICESAT-2", "group": "resource", "lat": 7.960678578728602, "lon": -117.22908035806456, "alt_km": 483.86864494917336, "timestamp": "2025-12-21T07:34:34.198180+00:00", "meta": {"OBJECT_NAME": "ICESAT-2", "OBJECT_ID": "2018-070A", "EPOCH": "2025-12-20T22:06:44.031744", "MEAN_MOTION": 15.28238807, "ECCENTRICITY": 0.00028945, "INCLINATION": 92.0047, "RA_OF_ASC_NODE": 242.9452, "ARG_OF_PERICENTER": 120.5065, "MEAN_ANOMALY": 239.6471, "EPHEMERIS_TYPE": 0, "CLASSIFICATION_TYPE": "U", "NORAD_CAT_ID": 43613, "ELEMENT_SET_NO": 999, "REV_AT_EPOCH": 40523, "BSTAR": 0.00031119304, "MEAN_MOTION_DOT": 8.56e-05, "MEAN_MOTION_DDOT": 0}, "tle": {"line1": "1 43613U 18070A   25354.92134296  .00008560  00000+0  31119-3 0  9994", "line2": "2 43613  92.0047 242.9452 0002894 120.5065 239.6471 15.28238807405231"}}, "geometry": {"type": "Point", "coordinates": [-117.22908035806456, 7.960678578728602]}}, {"type": "Feature", "properties": {"norad_id": 43719, "name": "HYSIS", "group": "resource", "lat": 53.14505208541381, "lon": 47.42504098808203, "alt_km": 627.8328041722853, "timestamp": "2025-12-21T07:34:34.198189+00:00", "meta": {"OBJECT_NAME": "HYSIS", "OBJECT_ID": "2018-096A", "EPOCH": "2025-12-20T23:12:46.545696", "MEAN_MOTION": 14.78665659, "ECCENTRICITY": 0.00010385, "INCLINATION": 98.0094, "RA_OF_ASC_NODE": 57.905, "ARG_OF_PERICENTER": 52.729, "MEAN_ANOMALY": 307.4016, "EPHEMERIS_TYPE": 0, "CLASSIFICATION_TYPE": "U", "NORAD_CAT_ID": 43719, "ELEMENT_SET_NO": 999, "REV_AT_EPOCH": 38108, "BSTAR": 0.00010505285, "MEAN_MOTION_DOT": 7.18e-06, "MEAN_MOTION_DDOT": 0}, "tle": {"line1": "1 43719U 18096A   25354.96720539  .00000718  00000+0  10505-3 0  9997", "line2": "2 43719  98.0094  57.9050 0001038  52.7290 307.4016 14.78665659381087"}}, "geometry": {"type": "Point", "coordinates": [47.42504098808203, 53.14505208541381]}}, {"type": "Feature", "properties": {"norad_id": 43783, "name": "KAZSTSAT", "group": "resource", "lat": -27.82154654834882, "lon": -153.82983460663252, "alt_km": 574.3409677105265, "timestamp": "2025-12-21T07:34:34.198198+00:00", "meta": {"OBJECT_NAME": "KAZSTSAT", "OBJECT_ID": "2018-099AB", "EPOCH": "2025-12-20T08:13:38.358048", "MEAN_MOTION": 14.99364446, "ECCENTRICITY": 0.00059921, "INCLINATION": 97.453, "RA_OF_ASC_NODE": 29.2006, "ARG_OF_PERICENTER": 296.0464, "MEAN_ANOMALY": 64.0142, "EPHEMERIS_TYPE": 0, "CLASSIFICATION_TYPE": "U", "NORAD_CAT_ID": 43783, "ELEMENT_SET_NO": 999, "REV_AT_EPOCH": 38450, "BSTAR": 2.1221197e-05, "MEAN_MOTION_DOT": 2.04e-06, "MEAN_MOTION_DDOT": 0}, "tle": {"line1": "1 43783U 18099AB  25354.34280507  .00000204  00000+0  21221-4 0  9997", "line2": "2 43783  97.4530  29.2006 0005992 296.0464  64.0142 14.99364446384507"}}, "geometry": {"type": "Point", "coordinates": [-153.82983460663252, -27.82154654834882]}}, {"type": "Feature", "properties": {"norad_id": 43831, "name": "SAUDISAT 5A", "group": "resource", "lat": -7.2529079956898705, "lon": 56.280775066977526, "alt_km": 488.24546559793725, "timestamp": "2025-12-21T07:34:34.198207+00:00", "meta": {"OBJECT_NAME": "SAUDISAT 5A", "OBJECT_ID": "2018-102A", "EPOCH": "2025-12-20T22:09:50.579712", "MEAN_MOTION": 15.25748695, "ECCENTRICITY": 0.00113782, "INCLINATION": 97.3343, "RA_OF_ASC_NODE": 54.9569, "ARG_OF_PERICENTER": 51.0777, "MEAN_ANOMALY": 309.1474, "EPHEMERIS_TYPE": 0, "CLASSIFICATION_TYPE": "U", "NORAD_CAT_ID": 43831, "ELEMENT_SET_NO": 999, "REV_AT_EPOCH": 38847, "BSTAR": 0.00017187861, "MEAN_MOTION_DOT": 4.321e-05, "MEAN_MOTION_DDOT": 0}, "tle": {"line1": "1 43831U 18102A   25354.92350208  .00004321  00000+0  17188-3 0  9996", "line2": "2 43831  97.3343  54.9569 0011378  51.0777 309.1474 15.25748695388475"}}, "geometry": {"type": "Point", "coordinates": [56.280775066977526, -7.2529079956898705]}}, {"type": "Feature", "properties": {"norad_id": 43833, "name": "SAUDISAT 5B", "group": "resource", "lat": 55.22534780160775, "lon": 47.39117442328454, "alt_km": 473.99019488716203, "timestamp": "2025-12-21T07:34:34.198216+00:00", "meta": {"OBJECT_NAME": "SAUDISAT 5B", "OBJECT_ID": "2018-102C", "EPOCH": "2025-12-20T21:53:26.324736", "MEAN_MOTION": 15.26097319, "ECCENTRICITY": 0.00121016, "INCLINATION": 97.3438, "RA_OF_ASC_NODE": 57.6989, "ARG_OF_PERICENTER": 53.1325, "MEAN_ANOMALY": 307.1021, "EPHEMERIS_TYPE": 0, "CLASSIFICATION_TYPE": "U", "NORAD_CAT_ID": 43833, "ELEMENT_SET_NO": 999, "REV_AT_EPOCH": 38858, "BSTAR": 0.00015983616, "MEAN_MOTION_DOT": 4.057e-05, "MEAN_MOTION_DDOT": 0}, "tle": {"line1": "1 43833U 18102C   25354.91211024  .00004057  00000+0  15984-3 0  9997", "line2": "2 43833  97.3438  57.6989 0012101  53.1325 307.1021 15.26097319388584"}}, "geometry": {"type": "Point", "coordinates": [47.39117442328454, 55.22534780160775]}}, {"type": "Feature", "properties": {"norad_id": 44622, "name": "GAOFEN-10R", "group": "resource", "lat": 71.77774653234671, "lon": 148.24399649626187, "alt_km": 613.4736122114564, "timestamp": "2025-12-21T07:34:34.198225+00:00", "meta": {"OBJECT_NAME": "GAOFEN-10R", "OBJECT_ID": "2019-066A", "EPOCH": "2025-12-20T23:00:03.644928", "MEAN_MOTION": 14.82817234, "ECCENTRICITY": 0.00073201, "INCLINATION": 98.0289, "RA_OF_ASC_NODE": 302.497, "ARG_OF_PERICENTER": 18.0575, "MEAN_ANOMALY": 342.0896, "EPHEMERIS_TYPE": 0, "CLASSIFICATION_TYPE": "U", "NORAD_CAT_ID": 44622, "ELEMENT_SET_NO": 999, "REV_AT_EPOCH": 33596, "BSTAR": 0.00014382484, "MEAN_MOTION_DOT": 1.109e-05, "MEAN_MOTION_DDOT": 0}, "tle": {"line1": "1 44622U 19066A   25354.95837552  .00001109  00000+0  14382-3 0  9994", "line2": "2 44622  98.0289 302.4970 0007320  18.0575 342.0896 14.82817234335967"}}, "geometry": {"type": "Point", "coordinates": [148.24399649626187, 71.77774653234671]}}]}